IRIDIUM 155             
1 43573U 18061E   23168.46627407  .00000180  00000+0  57357-4 0  9993
2 43573  86.3977 154.6408 0002303  82.0601 278.0856 14.34221597256307
IRIDIUM 154             
1 43574U 18061F   23168.44725014  .00000179  00000+0  56994-4 0  9999
2 43574  86.3981 154.7290 0002523  91.0916 269.0569 14.34218850256350
IRIDIUM 163             
1 43575U 18061G   23168.42821919  .00000171  00000+0  53980-4 0  9993
2 43575  86.3980 154.6864 0002356  91.0626 269.0839 14.34219311256328
IRIDIUM 156             
1 43576U 18061H   23168.47261365  .00000182  00000+0  57940-4 0  9994
2 43576  86.3979 154.6735 0002110  84.4033 275.7403 14.34220070256325
IRIDIUM 164             
1 43577U 18061J   23168.45358924  .00000191  00000+0  61138-4 0  9995
2 43577  86.3980 154.7049 0002281  93.0325 267.1131 14.34219619256360
IRIDIUM 159             
1 43578U 18061K   23168.49164943  .00000176  00000+0  55894-4 0  9991
2 43578  86.3978 154.6491 0002421  88.0880 272.0593 14.34218271256331
IRIDIUM 180             
1 43922U 19002A   23168.49114366  .00000332  00000+0  11158-3 0  9992
2 43922  86.3965  91.5386 0002357  88.0746 272.0719 14.34218315231940
IRIDIUM 176             
1 43923U 19002B   23168.51947639  .00001224  00000+0  19031-3 0  9992
2 43923  86.6096  91.5654 0002485  86.5959 273.5542 14.72232920238046
IRIDIUM 168             
1 43924U 19002C   23168.34525901  .00000362  00000+0  12238-3 0  9992
2 43924  86.3969  91.6458 0002397  87.6884 272.4586 14.34213402231903
IRIDIUM 173             
1 43925U 19002D   23168.54188569  .00000255  00000+0  83985-4 0  9999
2 43925  86.3963  91.4974 0002463  87.3904 272.7573 14.34217747231919
IRIDIUM 169             
1 43926U 19002E   23168.33150683  .00000381  00000+0  11805-3 0  9994
2 43926  86.4225 123.2025 0004202  28.2755 331.8670 14.38599935232679
IRIDIUM 172             
1 43927U 19002F   23168.32623581  .00000167  00000+0  52690-4 0  9996
2 43927  86.3966  91.5921 0002408  85.7887 274.3583 14.34216869231898
IRIDIUM 175             
1 43928U 19002G   23168.51317916  .00001164  00000+0  18072-3 0  9993
2 43928  86.1514  85.3682 0002499  86.7325 273.4177 14.72224593238036
IRIDIUM 171             
1 43929U 19002H   23168.51651508  .00000347  00000+0  11669-3 0  9999
2 43929  86.3974  91.6975 0002373  87.9580 272.1887 14.34217366231913
IRIDIUM 170             
1 43930U 19002J   23168.25377566  .00001162  00000+0  18037-3 0  9993
2 43930  86.6097  91.6814 0002484  89.7153 270.4349 14.72266564238013
IRIDIUM 167             
1 43931U 19002K   23168.51017139  .00000122  00000+0  36673-4 0  9992
2 43931  86.3967  91.5281 0002382  89.2062 270.9406 14.34217747231913
IRIDIUM 181             
1 56726U 23068S   23168.30349999  .00001609  00000+0  20794-3 0  9991
2 56726  86.6767 128.8201 0003105 106.7287 253.4276 14.80301175  4250
IRIDIUM 177             
1 56727U 23068T   23168.29796207  .00001532  00000+0  19795-3 0  9992
2 56727  86.6756 128.8130 0002683 102.1852 257.9670 14.80269785  4255
IRIDIUM 174             
1 56728U 23068U   23168.49533731  .00001528  00000+0  19751-3 0  9993
2 56728  86.6810 128.7451 0002673 100.6988 259.4535 14.80269891  4282
IRIDIUM 178             
1 56729U 23068V   23168.42235892  .00001519  00000+0  19629-3 0  9998
2 56729  86.6754 128.7502 0002563 105.1585 254.9921 14.80269821  4279
IRIDIUM 179             
1 56730U 23068W   23168.41662252  .00001534  00000+0  19841-3 0  9996
2 56730  86.6796 128.7612 0002491 106.2485 253.9011 14.80247217  4274
